{
    "links": {
        "self": "http://www.neowsapp.com/rest/v1/neo/3702941?api_key=iIulBulltgU6a56xZRHN4H3l9WmuAYTsLGpBGhQ2"
    },
    "id": "3702941",
    "neo_reference_id": "3702941",
    "name": "(2014 YQ9)",
    "designation": "2014 YQ9",
    "nasa_jpl_url": "http://ssd.jpl.nasa.gov/sbdb.cgi?sstr=3702941",
    "absolute_magnitude_h": 25.5,
    "estimated_diameter": {
        "kilometers": {
            "estimated_diameter_min": 0.0211132445,
            "estimated_diameter_max": 0.0472106499
        },
        "meters": {
            "estimated_diameter_min": 21.113244479,
            "estimated_diameter_max": 47.2106498806
        },
        "miles": {
            "estimated_diameter_min": 0.0131191578,
            "estimated_diameter_max": 0.0293353287
        },
        "feet": {
            "estimated_diameter_min": 69.2691770164,
            "estimated_diameter_max": 154.8905885541
        }
    },
    "is_potentially_hazardous_asteroid": false,
    "close_approach_data": [
        {
            "close_approach_date": "2007-01-01",
            "close_approach_date_full": "2007-Jan-01 01:44",
            "epoch_date_close_approach": 1167615840000,
            "relative_velocity": {
                "kilometers_per_second": "11.7020067183",
                "kilometers_per_hour": "42127.2241859815",
                "miles_per_hour": "26176.2188282284"
            },
            "miss_distance": {
                "astronomical": "0.2376914829",
                "lunar": "92.4619868481",
                "kilometers": "35558139.558981423",
                "miles": "22094803.3723047174"
            },
            "orbiting_body": "Earth"
        },
        {
            "close_approach_date": "2014-12-17",
            "close_approach_date_full": "2014-Dec-17 14:19",
            "epoch_date_close_approach": 1418825940000,
            "relative_velocity": {
                "kilometers_per_second": "7.223018609",
                "kilometers_per_hour": "26002.866992383",
                "miles_per_hour": "16157.1703264615"
            },
            "miss_distance": {
                "astronomical": "0.0432770717",
                "lunar": "16.8347808913",
                "kilometers": "6474157.746157279",
                "miles": "4022855.0811932902"
            },
            "orbiting_body": "Earth"
        },
        {
            "close_approach_date": "2089-10-17",
            "close_approach_date_full": "2089-Oct-17 07:58",
            "epoch_date_close_approach": 3780374280000,
            "relative_velocity": {
                "kilometers_per_second": "15.3906870243",
                "kilometers_per_hour": "55406.4732875635",
                "miles_per_hour": "34427.4278047086"
            },
            "miss_distance": {
                "astronomical": "0.4459548832",
                "lunar": "173.4764495648",
                "kilometers": "66713900.642818784",
                "miles": "41454095.6074918592"
            },
            "orbiting_body": "Earth"
        },
        {
            "close_approach_date": "2132-11-09",
            "close_approach_date_full": "2132-Nov-09 02:49",
            "epoch_date_close_approach": 5139254940000,
            "relative_velocity": {
                "kilometers_per_second": "10.2915452483",
                "kilometers_per_hour": "37049.5628938264",
                "miles_per_hour": "23021.1575658889"
            },
            "miss_distance": {
                "astronomical": "0.2779216211",
                "lunar": "108.1115106079",
                "kilometers": "41576482.543507057",
                "miles": "25834428.2941771066"
            },
            "orbiting_body": "Earth"
        }
    ],
    "orbital_data": {
        "orbit_id": "5",
        "orbit_determination_date": "2017-04-06 08:36:45",
        "first_observation_date": "2014-12-23",
        "last_observation_date": "2015-01-07",
        "data_arc_in_days": 15,
        "observations_used": 25,
        "orbit_uncertainty": "8",
        "minimum_orbit_intersection": ".0387302",
        "jupiter_tisserand_invariant": "4.782",
        "epoch_osculation": "2457015.5",
        "eccentricity": ".2593519421983031",
        "semi_major_axis": "1.365238610962388",
        "inclination": "11.08919539597452",
        "ascending_node_longitude": "87.50201286882347",
        "orbital_period": "582.654721762402",
        "perihelion_distance": "1.011161325645179",
        "perihelion_argument": "338.7346282580284",
        "aphelion_distance": "1.719315896279596",
        "perihelion_time": "2456992.463508208391",
        "mean_anomaly": "14.23336452143446",
        "mean_motion": ".6178616366672177",
        "equinox": "J2000",
        "orbit_class": {
            "orbit_class_type": "APO",
            "orbit_class_description": "Near-Earth asteroid orbits which cross the Earth’s orbit similar to that of 1862 Apollo",
            "orbit_class_range": "a (semi-major axis) > 1.0 AU; q (perihelion) < 1.017 AU"
        }
    },
    "is_sentry_object": false
}